NORAD_CAT_ID,OBJECT_NAME,OBJECT_TYPE,EPOCH,MEAN_MOTION,ECCENTRICITY,INCLINATION,RA_OF_ASC_NODE,ARG_OF_PERICENTER,MEAN_ANOMALY,BSTAR,MEAN_MOTION_DOT,MEAN_MOTION_DDOT,TLE_LINE0,TLE_LINE1,TLE_LINE2,SEMIMAJOR_AXIS,PERIOD,APOGEE,PERIGEE,DECAYED
55401.0,STARLINK-5076,PAYLOAD,2023-09-26 01:58:44,14.98342522,0.0002693,70.0016,162.5421,267.7,92.3851,0.00021439,2.467e-05,0.0,0 STARLINK-5076,1 55401U 23014L   23269.08246200  .00002467  00000-0  21439-3 0  9990,2 55401  70.0016 162.5421 0002693 267.7000  92.3851 14.98342522 36966,6950.154,96.106,573.891,570.147,0.0
55401.0,STARLINK-5076,PAYLOAD,2023-09-26 03:34:52,14.98343427,0.0002689,70.0015,162.3736,267.6086,92.4765,0.00022075,2.543e-05,0.0,0 STARLINK-5076,1 55401U 23014L   23269.14922070  .00002543  00000-0  22075-3 0  9995,2 55401  70.0015 162.3736 0002689 267.6086  92.4765 14.98343427 37916,6950.151,96.106,573.885,570.147,0.0
55401.0,STARLINK-5076,PAYLOAD,2023-09-26 18:00:06,14.98330837,0.0002555,70.0005,160.8592,238.8401,121.2508,-2.7494e-05,-4.21e-06,0.0,0 STARLINK-5076,1 55401U 23014L   23269.75007346 -.00000421  00000-0 -27494-4 0  9998,2 55401  70.0005 160.8592 0002555 238.8401 121.2508 14.98330837 37064,6950.19,96.107,573.831,570.28,0.0
55401.0,STARLINK-5076,PAYLOAD,2023-09-26 21:12:23,14.98321216,0.0003082,70.0008,160.5226,267.2217,92.8589,-0.00010066,-1.294e-05,0.0,0 STARLINK-5076,1 55401U 23014L   23269.88360240 -.00001294  00000-0 -10066-3 0  9992,2 55401  70.0008 160.5226 0003082 267.2217  92.8589 14.98321216 38025,6950.22,96.108,574.227,569.943,0.0
55401.0,STARLINK-5076,PAYLOAD,2023-09-27 02:00:47,14.98319764,0.0003018,70.001,160.0177,262.9992,97.0824,-0.0001096,-1.4e-05,0.0,0 STARLINK-5076,1 55401U 23014L   23270.08388432 -.00001400  00000-0 -10960-3 0  9991,2 55401  70.0010 160.0177 0003018 262.9992  97.0824 14.98319764 37112,6950.225,96.108,574.187,569.992,0.0
55401.0,STARLINK-5076,PAYLOAD,2023-09-27 10:01:28,14.98321816,0.0002936,70.0008,159.1756,269.3118,90.7705,-0.00015977,-1.998e-05,0.0,0 STARLINK-5076,1 55401U 23014L   23270.41768669 -.00001998  00000-0 -15977-3 0  9997,2 55401  70.0008 159.1756 0002936 269.3118  90.7705 14.98321816 38109,6950.218,96.108,574.124,570.043,0.0
55401.0,STARLINK-5076,PAYLOAD,2023-09-28 02:02:48,14.9832661,0.0003173,70.0003,157.4916,273.2138,86.8658,-0.00015697,-1.965e-05,0.0,0 STARLINK-5076,1 55401U 23014L   23271.08528621 -.00001965  00000-0 -15697-3 0  9996,2 55401  70.0003 157.4916 0003173 273.2138  86.8658 14.98326610 37269,6950.203,96.107,574.274,569.863,0.0
55401.0,STARLINK-5076,PAYLOAD,2023-09-28 18:04:08,14.98324791,0.0003256,70.0001,155.808,269.5942,90.4844,0.00017057,1.943e-05,0.0,0 STARLINK-5076,1 55401U 23014L   23271.75287943  .00001943  00000-0  17057-3 0  9995,2 55401  70.0001 155.8080 0003256 269.5942  90.4844 14.98324791 37361,6950.209,96.107,574.337,569.811,0.0
55401.0,STARLINK-5076,PAYLOAD,2023-09-28 21:16:24,14.98325235,0.0003262,70.0002,155.4712,269.5836,90.4949,0.00016982,1.934e-05,0.0,0 STARLINK-5076,1 55401U 23014L   23271.88639966  .00001934  00000-0  16982-3 0  9991,2 55401  70.0002 155.4712 0003262 269.5836  90.4949 14.98325235 38326,6950.208,96.107,574.34,569.805,0.0
55401.0,STARLINK-5076,PAYLOAD,2023-09-29 18:06:09,14.9833193,0.0003276,70.0,153.2827,269.4643,90.614,0.0001974,2.263e-05,0.0,0 STARLINK-5076,1 55401U 23014L   23272.75427493  .00002263  00000-0  19740-3 0  9999,2 55401  70.0000 153.2827 0003276 269.4643  90.6140 14.98331930 37511,6950.187,96.107,574.329,569.775,0.0
55401.0,STARLINK-5076,PAYLOAD,2023-09-30 02:06:49,14.98337255,0.0003201,70.0001,152.4412,269.8071,90.2721,0.00024294,2.807e-05,0.0,0 STARLINK-5076,1 55401U 23014L   23273.08806944  .00002807  00000-0  24294-3 0  9992,2 55401  70.0001 152.4412 0003201 269.8071  90.2721 14.98337255 38507,6950.17,96.107,574.26,569.811,0.0
55401.0,STARLINK-5076,PAYLOAD,2023-09-30 18:08:10,14.98334114,0.0002909,70.0026,150.7662,255.9633,104.1203,-9.0307e-05,-1.17e-05,0.0,0 STARLINK-5076,1 55401U 23014L   23273.75567909 -.00001170  00000-0 -90307-4 0  9994,2 55401  70.0026 150.7662 0002909 255.9633 104.1203 14.98334114 37663,6950.18,96.107,574.067,570.023,0.0
55401.0,STARLINK-5076,PAYLOAD,2023-10-01 02:08:51,14.98329788,0.0003312,70.0001,149.9182,273.5602,86.5178,-0.00011306,-1.442e-05,0.0,0 STARLINK-5076,1 55401U 23014L   23274.08948263 -.00001442  00000-0 -11306-3 0  9990,2 55401  70.0001 149.9182 0003312 273.5602  86.5178 14.98329788 37715,6950.194,96.107,574.36,569.757,0.0
55401.0,STARLINK-5076,PAYLOAD,2023-10-01 08:33:23,14.98332594,0.0003185,70.0003,149.2459,272.2404,87.839,-9.0806e-05,-1.176e-05,0.0,0 STARLINK-5076,1 55401U 23014L   23274.35652011 -.00001176  00000-0 -90806-4 0  9990,2 55401  70.0003 149.2459 0003185 272.2404  87.8390 14.98332594 38698,6950.185,96.107,574.264,569.836,0.0
55401.0,STARLINK-5076,PAYLOAD,2023-10-01 18:10:11,14.98336664,0.0003311,70.0,148.2348,269.8283,90.2496,-8.7694e-05,-1.139e-05,0.0,0 STARLINK-5076,1 55401U 23014L   23274.75707503 -.00001139  00000-0 -87694-4 0  9991,2 55401  70.0000 148.2348 0003311 269.8283  90.2496 14.98336664 37819,6950.172,96.107,574.338,569.736,0.0
55401.0,STARLINK-5076,PAYLOAD,2023-10-01 21:22:26,14.98342164,0.0003079,69.9999,147.8987,261.6165,98.4645,-2.2479e-05,-3.61e-06,0.0,0 STARLINK-5076,1 55401U 23014L   23274.89058911 -.00000361  00000-0 -22479-4 0  9994,2 55401  69.9999 147.8987 0003079 261.6165  98.4645 14.98342164 38771,6950.155,96.106,574.16,569.88,0.0
55401.0,STARLINK-5076,PAYLOAD,2023-10-02 02:10:50,14.98342554,0.0003322,69.9993,147.3932,269.3287,90.7491,2.6405e-05,2.22e-06,0.0,0 STARLINK-5076,1 55401U 23014L   23275.09086604  .00000222  00000-0  26405-4 0  9994,2 55401  69.9993 147.3932 0003322 269.3287  90.7491 14.98342554 37867,6950.154,96.106,574.328,569.71,0.0
55401.0,STARLINK-5076,PAYLOAD,2023-10-02 08:35:23,14.98334191,0.0002893,69.9993,146.7189,267.4797,92.6031,-2.2273e-06,-1.2e-06,0.0,0 STARLINK-5076,1 55401U 23014L   23275.35791192 -.00000120  00000-0 -22273-5 0  9997,2 55401  69.9993 146.7189 0002893 267.4797  92.6031 14.98334191 37905,6950.18,96.107,574.056,570.034,0.0
55401.0,STARLINK-5076,PAYLOAD,2023-10-02 21:24:28,14.9832343,0.0002848,70.0001,145.3743,266.7039,93.3794,2.922e-05,2.56e-06,0.0,0 STARLINK-5076,1 55401U 23014L   23275.89199828  .00000256  00000-0  29220-4 0  9990,2 55401  70.0001 145.3743 0002848 266.7039  93.3794 14.98323430 37986,6950.213,96.107,574.058,570.099,0.0
55401.0,STARLINK-5076,PAYLOAD,2023-10-03 08:37:25,14.98325559,0.0002937,69.9996,144.1955,268.4091,91.6732,2.2319e-05,1.73e-06,0.0,0 STARLINK-5076,1 55401U 23014L   23276.35931783  .00000173  00000-0  22319-4 0  9996,2 55401  69.9996 144.1955 0002937 268.4091  91.6732 14.98325559 38993,6950.207,96.107,574.113,570.03,0.0
55401.0,STARLINK-5076,PAYLOAD,2023-10-03 19:50:21,14.98327033,0.0002995,69.9996,143.0176,268.8889,91.1927,-6.9146e-05,-9.18e-06,0.0,0 STARLINK-5076,1 55401U 23014L   23276.82664004 -.00000918  00000-0 -69146-4 0  9995,2 55401  69.9996 143.0176 0002995 268.8889  91.1927 14.98327033 39068,6950.202,96.107,574.149,569.985,0.0
55401.0,STARLINK-5076,PAYLOAD,2023-10-04 08:39:25,14.98333605,0.0002805,69.9997,141.6695,271.3041,88.7797,-1.5847e-06,-1.12e-06,0.0,0 STARLINK-5076,1 55401U 23014L   23277.36071408 -.00000112  00000-0 -15847-5 0  9991,2 55401  69.9997 141.6695 0002805 271.3041  88.7797 14.98333605 38202,6950.182,96.107,573.996,570.097,0.0
55401.0,STARLINK-5076,PAYLOAD,2023-10-04 21:28:29,14.98334665,0.0002878,69.9993,140.3231,267.3373,92.7456,0.00010483,1.158e-05,0.0,0 STARLINK-5076,1 55401U 23014L   23277.89478888  .00001158  00000-0  10483-3 0  9990,2 55401  69.9993 140.3231 0002878 267.3373  92.7456 14.98334665 39220,6950.178,96.107,574.044,570.043,0.0
55401.0,STARLINK-5076,PAYLOAD,2023-10-05 08:41:26,14.9833193,0.0002831,69.9997,139.1451,272.1732,87.9102,1.272e-05,5.9e-07,0.0,0 STARLINK-5076,1 55401U 23014L   23278.36211204  .00000059  00000-0  12720-4 0  9996,2 55401  69.9997 139.1451 0002831 272.1732  87.9102 14.98331930 38355,6950.187,96.107,574.02,570.084,0.0
55401.0,STARLINK-5076,PAYLOAD,2023-10-05 21:30:31,14.98330753,0.0002902,69.9993,137.7989,265.17,94.9128,-6.4355e-06,-1.7e-06,0.0,0 STARLINK-5076,1 55401U 23014L   23278.89619364 -.00000170  00000-0 -64355-5 0  9991,2 55401  69.9993 137.7989 0002902 265.1700  94.9128 14.98330753 39378,6950.191,96.107,574.073,570.039,0.0
55401.0,STARLINK-5076,PAYLOAD,2023-10-06 00:42:47,14.98331984,0.0002751,69.9995,137.4621,261.2716,98.8132,-1.1195e-05,-2.27e-06,0.0,0 STARLINK-5076,1 55401U 23014L   23279.02971283 -.00000227  00000-0 -11195-4 0  9994,2 55401  69.9995 137.4621 0002751 261.2716  98.8132 14.98331984 39393,6950.187,96.107,573.964,570.14,0.0
55401.0,STARLINK-5076,PAYLOAD,2023-10-06 18:20:16,14.98328228,0.0002848,69.9993,135.6105,268.6959,91.3873,-7.7683e-05,-1.02e-05,0.0,0 STARLINK-5076,1 55401U 23014L   23279.76407725 -.00001020  00000-0 -77683-4 0  9996,2 55401  69.9993 135.6105 0002848 268.6959  91.3873 14.98328228 38560,6950.198,96.107,574.043,570.084,0.0
55401.0,STARLINK-5076,PAYLOAD,2023-10-06 21:32:32,14.9833066,0.0002904,69.9993,135.2741,269.2347,90.8479,-9.1618e-05,-1.186e-05,0.0,0 STARLINK-5076,1 55401U 23014L   23279.89759624 -.00001186  00000-0 -91618-4 0  9995,2 55401  69.9993 135.2741 0002904 269.2347  90.8479 14.98330660 39529,6950.191,96.107,574.074,570.038,0.0
55401.0,STARLINK-5076,PAYLOAD,2023-10-07 00:44:48,14.98330166,0.0002825,69.9993,134.9375,269.0728,91.0107,-9.0687e-05,-1.175e-05,0.0,0 STARLINK-5076,1 55401U 23014L   23280.03111661 -.00001175  00000-0 -90687-4 0  9999,2 55401  69.9993 134.9375 0002825 269.0728  91.0107 14.98330166 39545,6950.192,96.107,574.021,570.094,0.0
55401.0,STARLINK-5076,PAYLOAD,2023-10-07 18:22:16,14.98330724,0.0002783,69.9992,133.086,267.5992,92.4848,3.7786e-05,3.58e-06,0.0,0 STARLINK-5076,1 55401U 23014L   23280.76547279  .00000358  00000-0  37786-4 0  9998,2 55401  69.9992 133.0860 0002783 267.5992  92.4848 14.98330724 38717,6950.191,96.107,573.99,570.121,0.0
